{
  "type": "FeatureCollection",
  "features": [
    {
      "type": "Feature",
      "properties": {
        "norad_id": 60182,
        "name": "ALOS-4 (DAICHI-4)",
        "group": "resource",
        "lat": -61.593865766647646,
        "lon": -105.86621534141227,
        "alt_km": 638.9257175979483,
        "timestamp": "2025-12-20T07:33:50.461582+00:00",
        "meta_object_name": "ALOS-4 (DAICHI-4)",
        "meta_object_id": "2024-123A",
        "meta_epoch": "2025-12-19T22:21:18.106848",
        "meta_mean_motion": 14.79474129,
        "meta_eccentricity": 0.00013822,
        "meta_inclination": 97.9224,
        "meta_ra_of_asc_node": 88.6761,
        "meta_arg_of_pericenter": 101.3825,
        "meta_mean_anomaly": 258.7542,
        "meta_ephemeris_type": 0,
        "meta_classification_type": "U",
        "meta_norad_cat_id": 60182,
        "meta_element_set_no": 999,
        "meta_rev_at_epoch": 7937,
        "meta_bstar": 0.00019337671,
        "meta_mean_motion_dot": 1.393e-05,
        "meta_mean_motion_ddot": 0,
        "tle_line1": "1 60182U 24123A   25353.93145957  .00001393  00000+0  19338-3 0  9992",
        "tle_line2": "2 60182  97.9224  88.6761 0001382 101.3825 258.7542 14.79474129 79379"
      },
      "geometry": {
        "type": "Point",
        "coordinates": [
          -105.86621534141227,
          -61.593865766647646
        ]
      }
    },
    {
      "type": "Feature",
      "properties": {
        "norad_id": 60452,
        "name": "LEGION 3",
        "group": "resource",
        "lat": -42.31068773300819,
        "lon": 155.14024766304135,
        "alt_km": 511.5138051223694,
        "timestamp": "2025-12-20T07:33:50.461592+00:00",
        "meta_object_name": "LEGION 3",
        "meta_object_id": "2024-146A",
        "meta_epoch": "2025-12-19T20:57:57.766464",
        "meta_mean_motion": 15.15831408,
        "meta_eccentricity": 0.00156347,
        "meta_inclination": 45.0021,
        "meta_ra_of_asc_node": 271.8877,
        "meta_arg_of_pericenter": 237.0993,
        "meta_mean_anomaly": 122.8381,
        "meta_ephemeris_type": 0,
        "meta_classification_type": "U",
        "meta_norad_cat_id": 60452,
        "meta_element_set_no": 999,
        "meta_rev_at_epoch": 7481,
        "meta_bstar": 0.0001725552,
        "meta_mean_motion_dot": 3.098e-05,
        "meta_mean_motion_ddot": 0,
        "tle_line1": "1 60452U 24146A   25353.87358526  .00003098  00000+0  17256-3 0  9999",
        "tle_line2": "2 60452  45.0021 271.8877 0015634 237.0993 122.8381 15.15831408 74814"
      },
      "geometry": {
        "type": "Point",
        "coordinates": [
          155.14024766304135,
          -42.31068773300819
        ]
      }
    },
    {
      "type": "Feature",
      "properties": {
        "norad_id": 60453,
        "name": "LEGION 4",
        "group": "resource",
        "lat": -41.821384165772116,
        "lon": -115.30625215114985,
        "alt_km": 523.0079505964932,
        "timestamp": "2025-12-20T07:33:50.461603+00:00",
        "meta_object_name": "LEGION 4",
        "meta_object_id": "2024-146B",
        "meta_epoch": "2025-12-19T20:58:26.370912",
        "meta_mean_motion": 15.15893428,
        "meta_eccentricity": 0.00088008,
        "meta_inclination": 45.0395,
        "meta_ra_of_asc_node": 3.6582,
        "meta_arg_of_pericenter": 349.2141,
        "meta_mean_anomaly": 10.8548,
        "meta_ephemeris_type": 0,
        "meta_classification_type": "U",
        "meta_norad_cat_id": 60453,
        "meta_element_set_no": 999,
        "meta_rev_at_epoch": 7366,
        "meta_bstar": 0.00018434267,
        "meta_mean_motion_dot": 3.328e-05,
        "meta_mean_motion_ddot": 0,
        "tle_line1": "1 60453U 24146B   25353.87391633  .00003328  00000+0  18434-3 0  9991",
        "tle_line2": "2 60453  45.0395   3.6582 0008800 349.2141  10.8548 15.15893428 73664"
      },
      "geometry": {
        "type": "Point",
        "coordinates": [
          -115.30625215114985,
          -41.821384165772116
        ]
      }
    },
    {
      "type": "Feature",
      "properties": {
        "norad_id": 60989,
        "name": "SENTINEL-2C",
        "group": "resource",
        "lat": 57.047278764095765,
        "lon": -99.86364845226524,
        "alt_km": 782.710570735815,
        "timestamp": "2025-12-20T07:33:50.461614+00:00",
        "meta_object_name": "SENTINEL-2C",
        "meta_object_id": "2024-157A",
        "meta_epoch": "2025-12-19T22:36:17.460864",
        "meta_mean_motion": 14.30820183,
        "meta_eccentricity": 0.00012146,
        "meta_inclination": 98.5676,
        "meta_ra_of_asc_node": 66.3206,
        "meta_arg_of_pericenter": 96.0586,
        "meta_mean_anomaly": 264.0735,
        "meta_ephemeris_type": 0,
        "meta_classification_type": "U",
        "meta_norad_cat_id": 60989,
        "meta_element_set_no": 999,
        "meta_rev_at_epoch": 6735,
        "meta_bstar": 5.5747215e-05,
        "meta_mean_motion_dot": 1.03e-06,
        "meta_mean_motion_ddot": 0,
        "tle_line1": "1 60989U 24157A   25353.94186876  .00000103  00000+0  55747-4 0  9993",
        "tle_line2": "2 60989  98.5676  66.3206 0001214  96.0586 264.0735 14.30820183 67358"
      },
      "geometry": {
        "type": "Point",
        "coordinates": [
          -99.86364845226524,
          57.047278764095765
        ]
      }
    },
    {
      "type": "Feature",
      "properties": {
        "norad_id": 61735,
        "name": "IONOSFERA-M 1",
        "group": "resource",
        "lat": 12.101204872441103,
        "lon": 45.99500693055847,
        "alt_km": 817.8015021799201,
        "timestamp": "2025-12-20T07:33:50.461624+00:00",
        "meta_object_name": "IONOSFERA-M 1",
        "meta_object_id": "2024-199A",
        "meta_epoch": "2025-12-19T22:20:21.341184",
        "meta_mean_motion": 14.22715492,
        "meta_eccentricity": 6.143e-05,
        "meta_inclination": 98.7399,
        "meta_ra_of_asc_node": 223.7237,
        "meta_arg_of_pericenter": 12.8432,
        "meta_mean_anomaly": 347.2762,
        "meta_ephemeris_type": 0,
        "meta_classification_type": "U",
        "meta_norad_cat_id": 61735,
        "meta_element_set_no": 999,
        "meta_rev_at_epoch": 10221,
        "meta_bstar": 3.8821726e-05,
        "meta_mean_motion_dot": 4.3e-07,
        "meta_mean_motion_ddot": 0,
        "tle_line1": "1 61735U 24199A   25353.93080256  .00000043  00000+0  38822-4 0  9991",
        "tle_line2": "2 61735  98.7399 223.7237 0000614  12.8432 347.2762 14.22715492102210"
      },
      "geometry": {
        "type": "Point",
        "coordinates": [
          45.99500693055847,
          12.101204872441103
        ]
      }
    },
    {
      "type": "Feature",
      "properties": {
        "norad_id": 61736,
        "name": "IONOSFERA-M 2",
        "group": "resource",
        "lat": -9.660953593085866,
        "lon": -134.48221138179935,
        "alt_km": 820.7036101848444,
        "timestamp": "2025-12-20T07:33:50.461635+00:00",
        "meta_object_name": "IONOSFERA-M 2",
        "meta_object_id": "2024-199B",
        "meta_epoch": "2025-12-19T21:28:57.587808",
        "meta_mean_motion": 14.22717672,
        "meta_eccentricity": 0.00017952,
        "meta_inclination": 98.7398,
        "meta_ra_of_asc_node": 223.6006,
        "meta_arg_of_pericenter": 101.5104,
        "meta_mean_anomaly": 258.6275,
        "meta_ephemeris_type": 0,
        "meta_classification_type": "U",
        "meta_norad_cat_id": 61736,
        "meta_element_set_no": 999,
        "meta_rev_at_epoch": 10533,
        "meta_bstar": 3.6775989e-05,
        "meta_mean_motion_dot": 3.8e-07,
        "meta_mean_motion_ddot": 0,
        "tle_line1": "1 61736U 24199B   25353.89511097  .00000038  00000+0  36776-4 0  9999",
        "tle_line2": "2 61736  98.7398 223.6006 0001795 101.5104 258.6275 14.22717672105338"
      },
      "geometry": {
        "type": "Point",
        "coordinates": [
          -134.48221138179935,
          -9.660953593085866
        ]
      }
    },
    {
      "type": "Feature",
      "properties": {
        "norad_id": 63772,
        "name": "BIOMASS",
        "group": "resource",
        "lat": -36.85051310327501,
        "lon": -174.68161820241562,
        "alt_km": 675.6173805082544,
        "timestamp": "2025-12-20T07:33:50.461646+00:00",
        "meta_object_name": "BIOMASS",
        "meta_object_id": "2025-090A",
        "meta_epoch": "2025-12-19T10:27:38.474208",
        "meta_mean_motion": 14.67534976,
        "meta_eccentricity": 0.000107,
        "meta_inclination": 98.07,
        "meta_ra_of_asc_node": 178.3481,
        "meta_arg_of_pericenter": 79.7157,
        "meta_mean_anomaly": 280.4168,
        "meta_ephemeris_type": 0,
        "meta_classification_type": "U",
        "meta_norad_cat_id": 63772,
        "meta_element_set_no": 999,
        "meta_rev_at_epoch": 3432,
        "meta_bstar": 0.00014315,
        "meta_mean_motion_dot": 7.64e-06,
        "meta_mean_motion_ddot": 0,
        "tle_line1": "1 63772U 25090A   25353.43586197  .00000764  00000+0  14315-3 0  9995",
        "tle_line2": "2 63772  98.0700 178.3481 0001070  79.7157 280.4168 14.67534976 34320"
      },
      "geometry": {
        "type": "Point",
        "coordinates": [
          -174.68161820241562,
          -36.85051310327501
        ]
      }
    }
  ]
}